ONEWEB-0176             
1 48210U 21031A   24354.55623297 -.00000059  00000+0 -19246-3 0  9999
2 48210  87.9003  38.0007 0001770  97.9327 262.2004 13.14504755176762
ONEWEB-0184             
1 48211U 21031B   24354.52928266 -.00000076  00000+0 -23949-3 0  9995
2 48211  87.9004  37.9831 0000958 116.4492 243.6736 13.14502325176737
ONEWEB-0179             
1 48212U 21031C   24354.57526789  .00000246  00000+0  63005-3 0  9999
2 48212  87.9004  37.9840 0001829 100.6887 259.4449 13.14504717176787
ONEWEB-0180             
1 48213U 21031D   24354.53245066 -.00000135  00000+0 -39976-3 0  9991
2 48213  87.9002  37.9853 0001713 105.6794 254.4524 13.14501404176660
ONEWEB-0218             
1 48214U 21031E   24354.55465852 -.00000075  00000+0 -23587-3 0  9995
2 48214  87.9002  37.9823 0001162 131.4943 228.6286 13.14503506176820
ONEWEB-0209             
1 48215U 21031F   24354.54355879 -.00000212  00000+0 -60606-3 0  9998
2 48215  87.9005  38.0228 0001906 102.8335 257.3007 13.14503406176827
ONEWEB-0198             
1 48216U 21031G   24354.52769039 -.00000044  00000+0 -15349-3 0  9991
2 48216  87.9005  38.0295 0001619 110.6827 249.4477 13.14504228176934
ONEWEB-0189             
1 48217U 21031H   24354.54037683 -.00000214  00000+0 -61289-3 0  9990
2 48217  87.9002  38.0011 0001696 114.0528 246.0780 13.14503779176670
